{"type": "FeatureCollection", "features": [ {"type": "Feature", "properties": {"norad_id": 42741, "name": "EUTELSAT 172B", "group": "eutelsat", "lat": -0.008725376778147071, "lon": 64.90361584968801, "alt_km": 35785.329870246554, "timestamp": "2025-12-26T10:30:49.931054+00:00", "meta": {"OBJECT_NAME": "EUTELSAT 172B", "OBJECT_ID": "2017-029B", "EPOCH": "2025-12-25T20:43:50.636064", "MEAN_MOTION": 1.00277797, "ECCENTRICITY": 3.2e-05, "INCLINATION": 0.0359, "RA_OF_ASC_NODE": 152.4382, "ARG_OF_PERICENTER": 137.6622, "MEAN_ANOMALY": 287.4819, "EPHEMERIS_TYPE": 0, "CLASSIFICATION_TYPE": "U", "NORAD_CAT_ID": 42741, "ELEMENT_SET_NO": 999, "REV_AT_EPOCH": 3199, "BSTAR": 0, "MEAN_MOTION_DOT": 1.7e-07, "MEAN_MOTION_DDOT": 0}, "tle": {"line1": "1 42741U 17029B   25359.86378051  .00000017  00000+0  00000+0 0  9995", "line2": "2 42741   0.0359 152.4382 0000320 137.6622 287.4819  1.00277797 31995"}}, "geometry": {"type": "Point", "coordinates": [64.90361584968801, -0.008725376778147071]}}, {"type": "Feature", "properties": {"norad_id": 44334, "name": "EUTELSAT 7C", "group": "eutelsat", "lat": 0.053659501190652825, "lon": -100.14413674091912, "alt_km": 35772.85806593994, "timestamp": "2025-12-26T10:30:49.931066+00:00", "meta": {"OBJECT_NAME": "EUTELSAT 7C", "OBJECT_ID": "2019-034B", "EPOCH": "2025-12-24T14:50:38.546016", "MEAN_MOTION": 1.00270796, "ECCENTRICITY": 0.00031593, "INCLINATION": 0.0726, "RA_OF_ASC_NODE": 177.7928, "ARG_OF_PERICENTER": 79.9691, "MEAN_ANOMALY": 65.2631, "EPHEMERIS_TYPE": 0, "CLASSIFICATION_TYPE": "U", "NORAD_CAT_ID": 44334, "ELEMENT_SET_NO": 999, "REV_AT_EPOCH": 508, "BSTAR": 0, "MEAN_MOTION_DOT": 6.9e-07, "MEAN_MOTION_DDOT": 0}, "tle": {"line1": "1 44334U 19034B   25358.61850169  .00000069  00000+0  00000+0 0  9997", "line2": "2 44334   0.0726 177.7928 0003159  79.9691  65.2631  1.00270796  5083"}}, "geometry": {"type": "Point", "coordinates": [-100.14413674091912, 0.053659501190652825]}}, {"type": "Feature", "properties": {"norad_id": 44624, "name": "EUTELSAT 5 WEST B", "group": "eutelsat", "lat": -0.07755823632431008, "lon": -112.13157777759297, "alt_km": 35774.03333535864, "timestamp": "2025-12-26T10:30:49.931078+00:00", "meta": {"OBJECT_NAME": "EUTELSAT 5 WEST B", "OBJECT_ID": "2019-067A", "EPOCH": "2025-12-25T22:47:38.488128", "MEAN_MOTION": 1.0027127, "ECCENTRICITY": 0.0003195, "INCLINATION": 0.0622, "RA_OF_ASC_NODE": 345.9649, "ARG_OF_PERICENTER": 287.5339, "MEAN_ANOMALY": 158.1146, "EPHEMERIS_TYPE": 0, "CLASSIFICATION_TYPE": "U", "NORAD_CAT_ID": 44624, "ELEMENT_SET_NO": 999, "REV_AT_EPOCH": 2270, "BSTAR": 0, "MEAN_MOTION_DOT": -2.1e-07, "MEAN_MOTION_DDOT": 0}, "tle": {"line1": "1 44624U 19067A   25359.94975102 -.00000021  00000+0  00000+0 0  9996", "line2": "2 44624   0.0622 345.9649 0003195 287.5339 158.1146  1.00271270 22704"}}, "geometry": {"type": "Point", "coordinates": [-112.13157777759297, -0.07755823632431008]}}, {"type": "Feature", "properties": {"norad_id": 45027, "name": "EUTELSAT KONNECT", "group": "eutelsat", "lat": -0.0003504896702061522, "lon": -99.94908032254631, "alt_km": 35782.033760141036, "timestamp": "2025-12-26T10:30:49.931090+00:00", "meta": {"OBJECT_NAME": "EUTELSAT KONNECT", "OBJECT_ID": "2020-005B", "EPOCH": "2025-12-24T23:24:19.351008", "MEAN_MOTION": 1.00267204, "ECCENTRICITY": 0.0001571, "INCLINATION": 0.069, "RA_OF_ASC_NODE": 93.7711, "ARG_OF_PERICENTER": 204.5991, "MEAN_ANOMALY": 153.6522, "EPHEMERIS_TYPE": 0, "CLASSIFICATION_TYPE": "U", "NORAD_CAT_ID": 45027, "ELEMENT_SET_NO": 999, "REV_AT_EPOCH": 2259, "BSTAR": 0, "MEAN_MOTION_DOT": 7e-07, "MEAN_MOTION_DDOT": 0}, "tle": {"line1": "1 45027U 20005B   25358.97522397  .00000070  00000+0  00000+0 0  9997", "line2": "2 45027   0.0690  93.7711 0001571 204.5991 153.6522  1.00267204 22591"}}, "geometry": {"type": "Point", "coordinates": [-99.94908032254631, -0.0003504896702061522]}}, {"type": "Feature", "properties": {"norad_id": 49056, "name": "EUTELSAT QUANTUM", "group": "eutelsat", "lat": -0.031233458363936, "lon": -59.40442853526272, "alt_km": 35771.75095387829, "timestamp": "2025-12-26T10:30:49.931102+00:00", "meta": {"OBJECT_NAME": "EUTELSAT QUANTUM", "OBJECT_ID": "2021-069B", "EPOCH": "2025-12-25T22:23:38.632992", "MEAN_MOTION": 1.00271221, "ECCENTRICITY": 0.0003571, "INCLINATION": 0.0126, "RA_OF_ASC_NODE": 23.7639, "ARG_OF_PERICENTER": 259.6256, "MEAN_ANOMALY": 194.9069, "EPHEMERIS_TYPE": 0, "CLASSIFICATION_TYPE": "U", "NORAD_CAT_ID": 49056, "ELEMENT_SET_NO": 999, "REV_AT_EPOCH": 1619, "BSTAR": 0, "MEAN_MOTION_DOT": 1.48e-06, "MEAN_MOTION_DDOT": 0}, "tle": {"line1": "1 49056U 21069B   25359.93308603  .00000148  00000+0  00000+0 0  9999", "line2": "2 49056   0.0126  23.7639 0003571 259.6256 194.9069  1.00271221 16197"}}, "geometry": {"type": "Point", "coordinates": [-59.40442853526272, -0.031233458363936]}}, {"type": "Feature", "properties": {"norad_id": 53765, "name": "EUTELSAT KONNECT VHTS", "group": "eutelsat", "lat": 0.006659518397539936, "lon": -104.41592584249581, "alt_km": 35776.61208895656, "timestamp": "2025-12-26T10:30:49.931114+00:00", "meta": {"OBJECT_NAME": "EUTELSAT KONNECT VHTS", "OBJECT_ID": "2022-110A", "EPOCH": "2025-12-25T13:04:49.589760", "MEAN_MOTION": 1.00267512, "ECCENTRICITY": 0.0002526, "INCLINATION": 0.0614, "RA_OF_ASC_NODE": 98.0209, "ARG_OF_PERICENTER": 151.222, "MEAN_ANOMALY": 43.9766, "EPHEMERIS_TYPE": 0, "CLASSIFICATION_TYPE": "U", "NORAD_CAT_ID": 53765, "ELEMENT_SET_NO": 999, "REV_AT_EPOCH": 508, "BSTAR": 0, "MEAN_MOTION_DOT": 3.8e-07, "MEAN_MOTION_DDOT": 0}, "tle": {"line1": "1 53765U 22110A   25359.54501840  .00000038  00000+0  00000+0 0  9992", "line2": "2 53765   0.0614  98.0209 0002526 151.2220  43.9766  1.00267512  5087"}}, "geometry": {"type": "Point", "coordinates": [-104.41592584249581, 0.006659518397539936]}}, {"type": "Feature", "properties": {"norad_id": 54048, "name": "EUTELSAT HOTBIRD 13F", "group": "eutelsat", "lat": -0.03619682395239054, "lon": -94.15035643727951, "alt_km": 35787.0955146209, "timestamp": "2025-12-26T10:30:49.931125+00:00", "meta": {"OBJECT_NAME": "EUTELSAT HOTBIRD 13F", "OBJECT_ID": "2022-134A", "EPOCH": "2025-12-24T23:25:56.697024", "MEAN_MOTION": 1.00270775, "ECCENTRICITY": 0.0002211, "INCLINATION": 0.0545, "RA_OF_ASC_NODE": 289.4002, "ARG_OF_PERICENTER": 71.817, "MEAN_ANOMALY": 97.0057, "EPHEMERIS_TYPE": 0, "CLASSIFICATION_TYPE": "U", "NORAD_CAT_ID": 54048, "ELEMENT_SET_NO": 999, "REV_AT_EPOCH": 1163, "BSTAR": 0, "MEAN_MOTION_DOT": 1.08e-06, "MEAN_MOTION_DDOT": 0}, "tle": {"line1": "1 54048U 22134A   25358.97635066  .00000108  00000+0  00000+0 0  9995", "line2": "2 54048   0.0545 289.4002 0002211  71.8170  97.0057  1.00270775 11630"}}, "geometry": {"type": "Point", "coordinates": [-94.15035643727951, -0.03619682395239054]}}, {"type": "Feature", "properties": {"norad_id": 54225, "name": "EUTELSAT HOTBIRD 13G", "group": "eutelsat", "lat": 0.002929127599025042, "lon": -94.12252855937939, "alt_km": 35786.764649480196, "timestamp": "2025-12-26T10:30:49.931137+00:00", "meta": {"OBJECT_NAME": "EUTELSAT HOTBIRD 13G", "OBJECT_ID": "2022-146A", "EPOCH": "2025-12-24T00:28:38.654112", "MEAN_MOTION": 1.00268836, "ECCENTRICITY": 0.00017131, "INCLINATION": 0.0535, "RA_OF_ASC_NODE": 227.8066, "ARG_OF_PERICENTER": 307.349, "MEAN_ANOMALY": 297.8001, "EPHEMERIS_TYPE": 0, "CLASSIFICATION_TYPE": "U", "NORAD_CAT_ID": 54225, "ELEMENT_SET_NO": 999, "REV_AT_EPOCH": 571, "BSTAR": 0, "MEAN_MOTION_DOT": 1.08e-06, "MEAN_MOTION_DDOT": 0}, "tle": {"line1": "1 54225U 22146A   25358.01989183  .00000108  00000+0  00000+0 0  9992", "line2": "2 54225   0.0535 227.8066 0001713 307.3490 297.8001  1.00268836  5716"}}, "geometry": {"type": "Point", "coordinates": [-94.12252855937939, 0.002929127599025042]}}, {"type": "Feature", "properties": {"norad_id": 54259, "name": "EUTELSAT 10B", "group": "eutelsat", "lat": -0.004128409732288833, "lon": -97.08996287531076, "alt_km": 35787.29587136808, "timestamp": "2025-12-26T10:30:49.931149+00:00", "meta": {"OBJECT_NAME": "EUTELSAT 10B", "OBJECT_ID": "2022-157A", "EPOCH": "2025-12-25T22:01:38.543808", "MEAN_MOTION": 1.00270219, "ECCENTRICITY": 6.65e-05, "INCLINATION": 0.0617, "RA_OF_ASC_NODE": 95.4372, "ARG_OF_PERICENTER": 60.6723, "MEAN_ANOMALY": 278.9927, "EPHEMERIS_TYPE": 0, "CLASSIFICATION_TYPE": "U", "NORAD_CAT_ID": 54259, "ELEMENT_SET_NO": 999, "REV_AT_EPOCH": 1128, "BSTAR": 0, "MEAN_MOTION_DOT": 9e-07, "MEAN_MOTION_DDOT": 0}, "tle": {"line1": "1 54259U 22157A   25359.91780722  .00000090  00000+0  00000+0 0  9999", "line2": "2 54259   0.0617  95.4372 0000665  60.6723 278.9927  1.00270219 11280"}}, "geometry": {"type": "Point", "coordinates": [-97.08996287531076, -0.004128409732288833]}}, {"type": "Feature", "properties": {"norad_id": 59346, "name": "EUTELSAT 36D", "group": "eutelsat", "lat": -0.03550450558024246, "lon": -71.2489715968215, "alt_km": 35789.937233028904, "timestamp": "2025-12-26T10:30:49.931161+00:00", "meta": {"OBJECT_NAME": "EUTELSAT 36D", "OBJECT_ID": "2024-059A", "EPOCH": "2025-12-26T02:56:01.083264", "MEAN_MOTION": 1.00263096, "ECCENTRICITY": 4.93e-05, "INCLINATION": 0.0182, "RA_OF_ASC_NODE": 36.9532, "ARG_OF_PERICENTER": 25.8871, "MEAN_ANOMALY": 111.9168, "EPHEMERIS_TYPE": 0, "CLASSIFICATION_TYPE": "U", "NORAD_CAT_ID": 59346, "ELEMENT_SET_NO": 999, "REV_AT_EPOCH": 641, "BSTAR": 0, "MEAN_MOTION_DOT": 1.77e-06, "MEAN_MOTION_DDOT": 0}, "tle": {"line1": "1 59346U 24059A   25360.12223476  .00000177  00000+0  00000+0 0  9993", "line2": "2 59346   0.0182  36.9532 0000493  25.8871 111.9168  1.00263096  6410"}}, "geometry": {"type": "Point", "coordinates": [-71.2489715968215, -0.03550450558024246]}}]}